SPACEBEENZ-11           
1 52019U 22026M   23042.72277217  .00057644  00000+0  22272-2 0  9997
2 52019  97.5082  46.3581 0023846 151.1443 209.1119 15.25771659 50498
SPACEBEE-127            
1 52020U 22026N   23042.80421023  .00039139  00000+0  16815-2 0  9999
2 52020  97.5100  45.7894 0024911 154.7426 205.5034 15.22282149 50455
SPACEBEE-125            
1 52021U 22026P   23042.75660482  .00037403  00000+0  15629-2 0  9992
2 52021  97.5089  45.9718 0026190 154.6148 205.6382 15.23202179 50385
SPACEBEE-117            
1 52022U 22026Q   23042.72557487  .00040114  00000+0  17161-2 0  9996
2 52022  97.5106  45.7925 0024965 154.8199 205.4261 15.22418476 50360
SPACEBEE-116            
1 52023U 22026R   23042.76917686  .00040150  00000+0  17103-2 0  9998
2 52023  97.5107  45.8915 0024719 154.9501 205.2941 15.22569323 50379
SPACEBEE-113            
1 52024U 22026S   23042.75057188  .00042248  00000+0  17821-2 0  9997
2 52024  97.5103  45.8970 0026426 152.1944 208.0711 15.22848660 50375
SPACEBEE-112            
1 52025U 22026T   23042.80687952  .00047427  00000+0  19426-2 0  9999
2 52025  97.5100  46.1220 0024348 153.1068 207.1437 15.23860854 50391
SPACEBEENZ-13           
1 52026U 22026U   23041.04875657  .00057246  00000+0  22532-2 0  9998
2 52026  97.5080  44.6055 0023714 157.8485 202.3782 15.25159113 50052
SPACEBEE-123            
1 52027U 22026V   23042.94374533  .00039808  00000+0  17039-2 0  9996
2 52027  97.5094  45.8908 0024911 154.4878 205.7593 15.22403949 50308
SPACEBEENZ-12           
1 52028U 22026W   23042.74735537  .00054991  00000+0  22038-2 0  9995
2 52028  97.5126  46.2430 0024269 152.6890 207.5629 15.24555022 50391
SPACEBEE-124            
1 52029U 22026X   23042.95340269  .00040275  00000+0  17264-2 0  9998
2 52029  97.5090  45.8725 0024937 154.5746 205.6723 15.22350935 49023
YAOGAN-34 02            
1 52084U 22027A   23042.70958562 -.00000053  00000+0  62130-4 0  9999
2 52084  63.3993  98.6200 0026178 345.2314  14.7957 13.45241216 44599
