[
  {
    "OBJECT_NAME": "SPACEBEENZ-11",
    "OBJECT_ID": "2022-026M",
    "EPOCH": "2023-02-11T17:20:47.515488",
    "MEAN_MOTION": 15.25771659,
    "ECCENTRICITY": 0.0023846,
    "INCLINATION": 97.5082,
    "RA_OF_ASC_NODE": 46.3581,
    "ARG_OF_PERICENTER": 151.1443,
    "MEAN_ANOMALY": 209.1119,
    "EPHEMERIS_TYPE": 0,
    "CLASSIFICATION_TYPE": "U",
    "NORAD_CAT_ID": 52019,
    "ELEMENT_SET_NO": 999,
    "REV_AT_EPOCH": 5049,
    "BSTAR": 0.0022272,
    "MEAN_MOTION_DOT": 0.00057644,
    "MEAN_MOTION_DDOT": 0
  },
  {
    "OBJECT_NAME": "SPACEBEE-127",
    "OBJECT_ID": "2022-026N",
    "EPOCH": "2023-02-11T19:18:03.763872",
    "MEAN_MOTION": 15.22282149,
    "ECCENTRICITY": 0.0024911,
    "INCLINATION": 97.51,
    "RA_OF_ASC_NODE": 45.7894,
    "ARG_OF_PERICENTER": 154.7426,
    "MEAN_ANOMALY": 205.5034,
    "EPHEMERIS_TYPE": 0,
    "CLASSIFICATION_TYPE": "U",
    "NORAD_CAT_ID": 52020,
    "ELEMENT_SET_NO": 999,
    "REV_AT_EPOCH": 5045,
    "BSTAR": 0.0016815,
    "MEAN_MOTION_DOT": 0.00039139,
    "MEAN_MOTION_DDOT": 0
  },
  {
    "OBJECT_NAME": "SPACEBEE-125",
    "OBJECT_ID": "2022-026P",
    "EPOCH": "2023-02-11T18:09:30.656448",
    "MEAN_MOTION": 15.23202179,
    "ECCENTRICITY": 0.002619,
    "INCLINATION": 97.5089,
    "RA_OF_ASC_NODE": 45.9718,
    "ARG_OF_PERICENTER": 154.6148,
    "MEAN_ANOMALY": 205.6382,
    "EPHEMERIS_TYPE": 0,
    "CLASSIFICATION_TYPE": "U",
    "NORAD_CAT_ID": 52021,
    "ELEMENT_SET_NO": 999,
    "REV_AT_EPOCH": 5038,
    "BSTAR": 0.0015629,
    "MEAN_MOTION_DOT": 0.00037403,
    "MEAN_MOTION_DDOT": 0
  },
  {
    "OBJECT_NAME": "SPACEBEE-117",
    "OBJECT_ID": "2022-026Q",
    "EPOCH": "2023-02-11T17:24:49.668768",
    "MEAN_MOTION": 15.22418476,
    "ECCENTRICITY": 0.0024965,
    "INCLINATION": 97.5106,
    "RA_OF_ASC_NODE": 45.7925,
    "ARG_OF_PERICENTER": 154.8199,
    "MEAN_ANOMALY": 205.4261,
    "EPHEMERIS_TYPE": 0,
    "CLASSIFICATION_TYPE": "U",
    "NORAD_CAT_ID": 52022,
    "ELEMENT_SET_NO": 999,
    "REV_AT_EPOCH": 5036,
    "BSTAR": 0.0017161,
    "MEAN_MOTION_DOT": 0.00040114,
    "MEAN_MOTION_DDOT": 0
  },
  {
    "OBJECT_NAME": "SPACEBEE-116",
    "OBJECT_ID": "2022-026R",
    "EPOCH": "2023-02-11T18:27:36.880704",
    "MEAN_MOTION": 15.22569323,
    "ECCENTRICITY": 0.0024719,
    "INCLINATION": 97.5107,
    "RA_OF_ASC_NODE": 45.8915,
    "ARG_OF_PERICENTER": 154.9501,
    "MEAN_ANOMALY": 205.2941,
    "EPHEMERIS_TYPE": 0,
    "CLASSIFICATION_TYPE": "U",
    "NORAD_CAT_ID": 52023,
    "ELEMENT_SET_NO": 999,
    "REV_AT_EPOCH": 5037,
    "BSTAR": 0.0017103,
    "MEAN_MOTION_DOT": 0.0004015,
    "MEAN_MOTION_DDOT": 0
  },
  {
    "OBJECT_NAME": "SPACEBEE-113",
    "OBJECT_ID": "2022-026S",
    "EPOCH": "2023-02-11T18:00:49.410432",
    "MEAN_MOTION": 15.2284866,
    "ECCENTRICITY": 0.0026426,
    "INCLINATION": 97.5103,
    "RA_OF_ASC_NODE": 45.897,
    "ARG_OF_PERICENTER": 152.1944,
    "MEAN_ANOMALY": 208.0711,
    "EPHEMERIS_TYPE": 0,
    "CLASSIFICATION_TYPE": "U",
    "NORAD_CAT_ID": 52024,
    "ELEMENT_SET_NO": 999,
    "REV_AT_EPOCH": 5037,
    "BSTAR": 0.0017821,
    "MEAN_MOTION_DOT": 0.00042248,
    "MEAN_MOTION_DDOT": 0
  },
  {
    "OBJECT_NAME": "SPACEBEE-112",
    "OBJECT_ID": "2022-026T",
    "EPOCH": "2023-02-11T19:21:54.390528",
    "MEAN_MOTION": 15.23860854,
    "ECCENTRICITY": 0.0024348,
    "INCLINATION": 97.51,
    "RA_OF_ASC_NODE": 46.122,
    "ARG_OF_PERICENTER": 153.1068,
    "MEAN_ANOMALY": 207.1437,
    "EPHEMERIS_TYPE": 0,
    "CLASSIFICATION_TYPE": "U",
    "NORAD_CAT_ID": 52025,
    "ELEMENT_SET_NO": 999,
    "REV_AT_EPOCH": 5039,
    "BSTAR": 0.0019426,
    "MEAN_MOTION_DOT": 0.00047427,
    "MEAN_MOTION_DDOT": 0
  },
  {
    "OBJECT_NAME": "SPACEBEENZ-13",
    "OBJECT_ID": "2022-026U",
    "EPOCH": "2023-02-10T01:10:12.567648",
    "MEAN_MOTION": 15.25159113,
    "ECCENTRICITY": 0.0023714,
    "INCLINATION": 97.508,
    "RA_OF_ASC_NODE": 44.6055,
    "ARG_OF_PERICENTER": 157.8485,
    "MEAN_ANOMALY": 202.3782,
    "EPHEMERIS_TYPE": 0,
    "CLASSIFICATION_TYPE": "U",
    "NORAD_CAT_ID": 52026,
    "ELEMENT_SET_NO": 999,
    "REV_AT_EPOCH": 5005,
    "BSTAR": 0.0022532,
    "MEAN_MOTION_DOT": 0.00057246,
    "MEAN_MOTION_DDOT": 0
  },
  {
    "OBJECT_NAME": "SPACEBEE-123",
    "OBJECT_ID": "2022-026V",
    "EPOCH": "2023-02-11T22:38:59.596512",
    "MEAN_MOTION": 15.22403949,
    "ECCENTRICITY": 0.0024911,
    "INCLINATION": 97.5094,
    "RA_OF_ASC_NODE": 45.8908,
    "ARG_OF_PERICENTER": 154.4878,
    "MEAN_ANOMALY": 205.7593,
    "EPHEMERIS_TYPE": 0,
    "CLASSIFICATION_TYPE": "U",
    "NORAD_CAT_ID": 52027,
    "ELEMENT_SET_NO": 999,
    "REV_AT_EPOCH": 5030,
    "BSTAR": 0.0017039,
    "MEAN_MOTION_DOT": 0.00039808,
    "MEAN_MOTION_DDOT": 0
  },
  {
    "OBJECT_NAME": "SPACEBEENZ-12",
    "OBJECT_ID": "2022-026W",
    "EPOCH": "2023-02-11T17:56:11.503968",
    "MEAN_MOTION": 15.24555022,
    "ECCENTRICITY": 0.0024269,
    "INCLINATION": 97.5126,
    "RA_OF_ASC_NODE": 46.243,
    "ARG_OF_PERICENTER": 152.689,
    "MEAN_ANOMALY": 207.5629,
    "EPHEMERIS_TYPE": 0,
    "CLASSIFICATION_TYPE": "U",
    "NORAD_CAT_ID": 52028,
    "ELEMENT_SET_NO": 999,
    "REV_AT_EPOCH": 5039,
    "BSTAR": 0.0022038,
    "MEAN_MOTION_DOT": 0.00054991,
    "MEAN_MOTION_DDOT": 0
  },
  {
    "OBJECT_NAME": "SPACEBEE-124",
    "OBJECT_ID": "2022-026X",
    "EPOCH": "2023-02-11T22:52:53.992416",
    "MEAN_MOTION": 15.22350935,
    "ECCENTRICITY": 0.0024937,
    "INCLINATION": 97.509,
    "RA_OF_ASC_NODE": 45.8725,
    "ARG_OF_PERICENTER": 154.5746,
    "MEAN_ANOMALY": 205.6723,
    "EPHEMERIS_TYPE": 0,
    "CLASSIFICATION_TYPE": "U",
    "NORAD_CAT_ID": 52029,
    "ELEMENT_SET_NO": 999,
    "REV_AT_EPOCH": 4902,
    "BSTAR": 0.0017264,
    "MEAN_MOTION_DOT": 0.00040275,
    "MEAN_MOTION_DDOT": 0
  },
  {
    "OBJECT_NAME": "YAOGAN-34 02",
    "OBJECT_ID": "2022-027A",
    "EPOCH": "2023-02-11T17:01:48.197568",
    "MEAN_MOTION": 13.45241216,
    "ECCENTRICITY": 0.0026178,
    "INCLINATION": 63.3993,
    "RA_OF_ASC_NODE": 98.62,
    "ARG_OF_PERICENTER": 345.2314,
    "MEAN_ANOMALY": 14.7957,
    "EPHEMERIS_TYPE": 0,
    "CLASSIFICATION_TYPE": "U",
    "NORAD_CAT_ID": 52084,
    "ELEMENT_SET_NO": 999,
    "REV_AT_EPOCH": 4459,
    "BSTAR": 6.213e-5,
    "MEAN_MOTION_DOT": -5.3e-7,
    "MEAN_MOTION_DDOT": 0
  }
]
